[{"OBJECT_NAME":"HAWK-10B","OBJECT_ID":"2024-149CF","EPOCH":"2026-03-09T22:24:07.674624","MEAN_MOTION":14.96175068,"ECCENTRICITY":0.00063882,"INCLINATION":97.6865,"RA_OF_ASC_NODE":146.0046,"ARG_OF_PERICENTER":71.247,"MEAN_ANOMALY":288.9444,"EPHEMERIS_TYPE":0,"CLASSIFICATION_TYPE":"U","NORAD_CAT_ID":60545,"ELEMENT_SET_NO":999,"REV_AT_EPOCH":8514,"BSTAR":0.00020768682,"MEAN_MOTION_DOT":2.283e-5,"MEAN_MOTION_DDOT":0},{"OBJECT_NAME":"STARLINK-33956","OBJECT_ID":"2025-098B","EPOCH":"2026-03-09T20:56:17.811168","MEAN_MOTION":14.9808157,"ECCENTRICITY":0.00013171,"INCLINATION":70.002,"RA_OF_ASC_NODE":273.8381,"ARG_OF_PERICENTER":251.6573,"MEAN_ANOMALY":108.4443,"EPHEMERIS_TYPE":0,"CLASSIFICATION_TYPE":"U","NORAD_CAT_ID":63927,"ELEMENT_SET_NO":999,"REV_AT_EPOCH":4660,"BSTAR":-0.0029688164,"MEAN_MOTION_DOT":-0.0003511,"MEAN_MOTION_DDOT":0}]
